EUTELSAT 8 WEST B       
1 40875U 15039B   25341.92318524 -.00000062  00000+0  00000+0 0  9998
2 40875   0.0645 357.3754 0004140 260.8721 143.0508  1.00271409 37735
EUTELSAT 9B             
1 41310U 16005A   25341.85525367  .00000065  00000+0  00000+0 0  9996
2 41310   0.0774  76.0031 0005018 192.6175 125.1451  1.00272959 36194
EUTELSAT 65 WEST A      
1 41382U 16014A   25341.91191852 -.00000273  00000+0  00000+0 0  9992
2 41382   0.0495 359.5474 0002863 267.0396  73.4130  1.00269243 35617
EUTELSAT 117 WEST B     
1 41589U 16038B   25341.68756942 -.00000007  00000+0  00000+0 0  9993
2 41589   0.0035 146.5968 0000581 345.3614  75.2712  1.00264607 34744
EUTELSAT 172B           
1 42741U 17029B   25341.88758054 -.00000003  00000+0  00000+0 0  9999
2 42741   0.0106  83.9614 0000196 146.0074 338.4721  1.00269558 31813
EUTELSAT 7C             
1 44334U 19034B   25341.92621859  .00000051  00000+0  00000+0 0  9996
2 44334   0.0741 178.5403 0003435  63.0690 175.7504  1.00270379  4911
EUTELSAT 5 WEST B       
1 44624U 19067A   25341.92379191 -.00000039  00000+0  00000+0 0  9990
2 44624   0.0653 338.5812 0003567 279.2547 146.6691  1.00270758 22516
EUTELSAT KONNECT        
1 45027U 20005B   25341.92621859  .00000052  00000+0  00000+0 0  9997
2 45027   0.0718  97.3504 0001822 188.4731 131.7427  1.00269250 22418
